TAF ZSPD 050600Z 0509/0615 09003MPS CAVOK
BECMG 0512/0514 15006MPS
TEMPO 0515/0519 3000 BR
BECMG 0521/0523 08002MPS
